[{"OBJECT_NAME":"STARLINK-5147","OBJECT_ID":"2022-125X","EPOCH":"2026-03-09T17:15:08.735904","MEAN_MOTION":15.08860135,"ECCENTRICITY":0.00011902,"INCLINATION":53.2178,"RA_OF_ASC_NODE":214.2234,"ARG_OF_PERICENTER":82.7716,"MEAN_ANOMALY":277.3411,"EPHEMERIS_TYPE":0,"CLASSIFICATION_TYPE":"U","NORAD_CAT_ID":53985,"ELEMENT_SET_NO":999,"REV_AT_EPOCH":18946,"BSTAR":0.00018785314,"MEAN_MOTION_DOT":2.705e-5,"MEAN_MOTION_DDOT":0},{"OBJECT_NAME":"FREGAT DEB","OBJECT_ID":"2011-037BR","EPOCH":"2026-03-08T16:41:19.114368","MEAN_MOTION":11.55431875,"ECCENTRICITY":0.16348363,"INCLINATION":51.442,"RA_OF_ASC_NODE":302.7911,"ARG_OF_PERICENTER":221.4876,"MEAN_ANOMALY":124.9869,"EPHEMERIS_TYPE":0,"CLASSIFICATION_TYPE":"U","NORAD_CAT_ID":45831,"ELEMENT_SET_NO":999,"REV_AT_EPOCH":24228,"BSTAR":0.0010461944,"MEAN_MOTION_DOT":1.975e-5,"MEAN_MOTION_DDOT":0}]
